STARLINK-3752           
1 52312U 22041BD  26068.32367942  .00000539  00000+0  51938-4 0  9996
2 52312  53.2169  90.7155 0001400  84.1617 275.9535 15.08838456215811
DISKSAT A               
1 67222U 25305D   26068.54789610  .00013824  00000+0  90452-3 0  9996
2 67222  45.0023 251.6019 0004082 318.1929  41.8634 15.07741062 12266
